start=new Date('2022-09-12T00:00:00.000Z').valueOf();
sats=[{"GP_ID":"212319110","ECCENTRICITY":"0.00013020","REF_FRAME":"TEME","RCS_SIZE":"LARGE","PERIOD":"95.593","CENTER_NAME":"EARTH","NORAD_CAT_ID":"45050","FILE":"3568903","MEAN_ELEMENT_THEORY":"SGP4","BSTAR":"-0.00018059000000","ARG_OF_PERICENTER":"79.3548","CLASSIFICATION_TYPE":"U","MEAN_MOTION_DOT":"-0.00002970","INCLINATION":"53.0523","MEAN_MOTION":"15.06392887","MEAN_ANOMALY":"280.7587","DECAY_DATE":null,"ELEMENT_SET_NO":"999","OBJECT_NAME":"STARLINK-1140","OBJECT_ID":"2020-006G","RA_OF_ASC_NODE":"252.1604","LAUNCH_DATE":"2020-01-29","SITE":"AFETR","APOAPSIS":"548.137","COUNTRY_CODE":"US","EPHEMERIS_TYPE":"0","REV_AT_EPOCH":"14422","OBJECT_TYPE":"PAYLOAD","TIME_SYSTEM":"UTC","SEMIMAJOR_AXIS":"6925.370","PERIAPSIS":"546.334","MEAN_MOTION_DDOT":"0.0000000000000","EPOCH":"2022-09-11T06:37:21.885600","TLE_LINE1":"1 45050U 20006G   22254.27594775 -.00002970  00000-0 -18059-3 0  9999","TLE_LINE2":"2 45050  53.0523 252.1604 0001302  79.3548 280.7587 15.06392887144225"},{"RA_OF_ASC_NODE":"243.0344","OBJECT_ID":"2020-006H","APOAPSIS":"521.814","COUNTRY_CODE":"US","LAUNCH_DATE":"2020-01-29","SITE":"AFETR","REV_AT_EPOCH":"14436","OBJECT_TYPE":"PAYLOAD","EPHEMERIS_TYPE":"0","PERIAPSIS":"519.121","SEMIMAJOR_AXIS":"6898.603","EPOCH":"2022-09-11T09:12:50.905728","MEAN_MOTION_DDOT":"0.0000000000000","TLE_LINE1":"1 45051U 20006H   22254.38392252  .00021507  00000-0  11456-2 0  9996","TLE_LINE2":"2 45051  53.0489 243.0344 0001952  76.2601 283.8609 15.15168922144369","TIME_SYSTEM":"UTC","PERIOD":"95.039","RCS_SIZE":"LARGE","CENTER_NAME":"EARTH","GP_ID":"212317859","REF_FRAME":"TEME","ECCENTRICITY":"0.00019520","BSTAR":"0.00114560000000","CLASSIFICATION_TYPE":"U","ARG_OF_PERICENTER":"76.2601","FILE":"3568903","NORAD_CAT_ID":"45051","MEAN_ELEMENT_THEORY":"SGP4","MEAN_ANOMALY":"283.8609","MEAN_MOTION_DOT":"0.00021507","MEAN_MOTION":"15.15168922","INCLINATION":"53.0489","OBJECT_NAME":"STARLINK-1141","DECAY_DATE":null,"ELEMENT_SET_NO":"999"},{"TIME_SYSTEM":"UTC","TLE_LINE1":"1 45052U 20006J   22254.81410748 -.00001337  00000-0 -70910-4 0  9999","TLE_LINE2":"2 45052  53.0527 249.7492 0001592  79.6402 280.4766 15.06389500144304","SEMIMAJOR_AXIS":"6925.381","PERIAPSIS":"546.143","MEAN_MOTION_DDOT":"0.0000000000000","EPOCH":"2022-09-11T19:32:18.886272","EPHEMERIS_TYPE":"0","OBJECT_TYPE":"PAYLOAD","REV_AT_EPOCH":"14430","SITE":"AFETR","LAUNCH_DATE":"2020-01-29","COUNTRY_CODE":"US","APOAPSIS":"548.348","OBJECT_ID":"2020-006J","RA_OF_ASC_NODE":"249.7492","ELEMENT_SET_NO":"999","DECAY_DATE":null,"OBJECT_NAME":"STARLINK-1148","MEAN_MOTION":"15.06389500","INCLINATION":"53.0527","MEAN_MOTION_DOT":"-0.00001337","MEAN_ANOMALY":"280.4766","MEAN_ELEMENT_THEORY":"SGP4","FILE":"3569361","NORAD_CAT_ID":"45052","CLASSIFICATION_TYPE":"U","BSTAR":"-0.00007091000000","ARG_OF_PERICENTER":"79.6402","REF_FRAME":"TEME","GP_ID":"212353561","ECCENTRICITY":"0.00015920","RCS_SIZE":"LARGE","PERIOD":"95.593","CENTER_NAME":"EARTH"},{"TLE_LINE1":"1 45053U 20006K   22254.35753052  .00013989  00000-0  74628-3 0  9990","TLE_LINE2":"2 45053  53.0001 238.4898 0001632  79.4927 280.6249 15.15419915144382","PERIAPSIS":"518.580","SEMIMAJOR_AXIS":"6897.841","EPOCH":"2022-09-11T08:34:50.636928","MEAN_MOTION_DDOT":"0.0000000000000","TIME_SYSTEM":"UTC","OBJECT_TYPE":"PAYLOAD","REV_AT_EPOCH":"14438","EPHEMERIS_TYPE":"0","COUNTRY_CODE":"US","APOAPSIS":"520.832","SITE":"AFETR","LAUNCH_DATE":"2020-01-29","RA_OF_ASC_NODE":"238.4898","OBJECT_ID":"2020-006K","OBJECT_NAME":"STARLINK-1155","DECAY_DATE":null,"ELEMENT_SET_NO":"999","MEAN_ANOMALY":"280.6249","INCLINATION":"53.0001","MEAN_MOTION":"15.15419915","MEAN_MOTION_DOT":"0.00013989","ARG_OF_PERICENTER":"79.4927","BSTAR":"0.00074628000000","CLASSIFICATION_TYPE":"U","MEAN_ELEMENT_THEORY":"SGP4","NORAD_CAT_ID":"45053","FILE":"3568903","RCS_SIZE":"LARGE","PERIOD":"95.023","CENTER_NAME":"EARTH","GP_ID":"212318860","REF_FRAME":"TEME","ECCENTRICITY":"0.00016320"},{"RA_OF_ASC_NODE":"251.2673","OBJECT_ID":"2020-006L","COUNTRY_CODE":"US","APOAPSIS":"548.212","SITE":"AFETR","LAUNCH_DATE":"2020-01-29","OBJECT_TYPE":"PAYLOAD","REV_AT_EPOCH":"14425","EPHEMERIS_TYPE":"0","TLE_LINE1":"1 45054U 20006L   22254.47868882  .00001893  00000-0  14589-3 0  9993","TLE_LINE2":"2 45054  53.0526 251.2673 0001493  82.8894 277.2265 15.06411693144256","PERIAPSIS":"546.144","SEMIMAJOR_AXIS":"6925.313","MEAN_MOTION_DDOT":"0.0000000000000","EPOCH":"2022-09-11T11:29:18.714048","TIME_SYSTEM":"UTC","PERIOD":"95.591","RCS_SIZE":"LARGE","CENTER_NAME":"EARTH","GP_ID":"212318610","REF_FRAME":"TEME","ECCENTRICITY":"0.00014930","BSTAR":"0.00014589000000","ARG_OF_PERICENTER":"82.8894","CLASSIFICATION_TYPE":"U","MEAN_ELEMENT_THEORY":"SGP4","FILE":"3568903","NORAD_CAT_ID":"45054","MEAN_ANOMALY":"277.2265","MEAN_MOTION":"15.06411693","INCLINATION":"53.0526","MEAN_MOTION_DOT":"0.00001893","OBJECT_NAME":"STARLINK-1156","DECAY_DATE":null,"ELEMENT_SET_NO":"999"},{"INCLINATION":"53.0550","MEAN_MOTION":"15.06408383","MEAN_MOTION_DOT":"-0.00000056","MEAN_ANOMALY":"273.6632","ELEMENT_SET_NO":"999","DECAY_DATE":null,"OBJECT_NAME":"STARLINK-1159","GP_ID":"212317360","ECCENTRICITY":"0.00016280","REF_FRAME":"TEME","PERIOD":"95.592","RCS_SIZE":"LARGE","CENTER_NAME":"EARTH","MEAN_ELEMENT_THEORY":"SGP4","NORAD_CAT_ID":"45057","FILE":"3568903","ARG_OF_PERICENTER":"86.4543","BSTAR":"0.00001516200000","CLASSIFICATION_TYPE":"U","EPHEMERIS_TYPE":"0","OBJECT_TYPE":"PAYLOAD","REV_AT_EPOCH":"14423","TIME_SYSTEM":"UTC","TLE_LINE2":"2 45057  53.0550 252.0979 0001628  86.4543 273.6632 15.06408383144233","TLE_LINE1":"1 45057U 20006P   22254.29438267 -.00000056  00000-0  15162-4 0  9996","PERIAPSIS":"546.060","EPOCH":"2022-09-11T07:03:54.662688","SEMIMAJOR_AXIS":"6925.323","MEAN_MOTION_DDOT":"0.0000000000000","OBJECT_ID":"2020-006P","RA_OF_ASC_NODE":"252.0979","SITE":"AFETR","LAUNCH_DATE":"2020-01-29","COUNTRY_CODE":"US","APOAPSIS":"548.315"},{"SITE":"AFETR","LAUNCH_DATE":"2020-01-29","COUNTRY_CODE":"US","APOAPSIS":"548.103","OBJECT_ID":"2020-006Q","RA_OF_ASC_NODE":"252.4279","TIME_SYSTEM":"UTC","TLE_LINE2":"2 45058  53.0553 252.4279 0001307  66.8135 293.2991 15.06405125144223","TLE_LINE1":"1 45058U 20006Q   22254.22066780  .00000549  00000-0  55767-4 0  9998","PERIAPSIS":"546.293","SEMIMAJOR_AXIS":"6925.333","EPOCH":"2022-09-11T05:17:45.697920","MEAN_MOTION_DDOT":"0.0000000000000","EPHEMERIS_TYPE":"0","OBJECT_TYPE":"PAYLOAD","REV_AT_EPOCH":"14422","MEAN_ELEMENT_THEORY":"SGP4","FILE":"3568903","NORAD_CAT_ID":"45058","BSTAR":"0.00005576700000","CLASSIFICATION_TYPE":"U","ARG_OF_PERICENTER":"66.8135","ECCENTRICITY":"0.00013070","GP_ID":"212317610","REF_FRAME":"TEME","RCS_SIZE":"LARGE","PERIOD":"95.592","CENTER_NAME":"EARTH","DECAY_DATE":null,"ELEMENT_SET_NO":"999","OBJECT_NAME":"STARLINK-1162","MEAN_MOTION":"15.06405125","INCLINATION":"53.0553","MEAN_MOTION_DOT":"0.00000549","MEAN_ANOMALY":"293.2991"},{"OBJECT_NAME":"STARLINK-1165","DECAY_DATE":null,"ELEMENT_SET_NO":"999","MEAN_ANOMALY":"275.1704","MEAN_MOTION_DOT":"-0.00000990","MEAN_MOTION":"15.06391772","INCLINATION":"53.0530","CLASSIFICATION_TYPE":"U","BSTAR":"-0.00004757000000","ARG_OF_PERICENTER":"84.9435","FILE":"3568903","NORAD_CAT_ID":"45059","MEAN_ELEMENT_THEORY":"SGP4","PERIOD":"95.593","RCS_SIZE":"LARGE","CENTER_NAME":"EARTH","REF_FRAME":"TEME","GP_ID":"212318360","ECCENTRICITY":"0.00013160","PERIAPSIS":"546.327","EPOCH":"2022-09-11T09:00:41.618880","SEMIMAJOR_AXIS":"6925.374","MEAN_MOTION_DDOT":"0.0000000000000","TLE_LINE2":"2 45059  53.0530 251.7380 0001316  84.9435 275.1704 15.06391772144243","TLE_LINE1":"1 45059U 20006R   22254.37548170 -.00000990  00000-0 -47570-4 0  9998","TIME_SYSTEM":"UTC","REV_AT_EPOCH":"14424","OBJECT_TYPE":"PAYLOAD","EPHEMERIS_TYPE":"0","APOAPSIS":"548.150","COUNTRY_CODE":"US","LAUNCH_DATE":"2020-01-29","SITE":"AFETR","RA_OF_ASC_NODE":"251.7380","OBJECT_ID":"2020-006R"},{"RCS_SIZE":"LARGE","PERIOD":"95.592","CENTER_NAME":"EARTH","ECCENTRICITY":"0.00015030","GP_ID":"212319111","REF_FRAME":"TEME","BSTAR":"0.00009647800000","ARG_OF_PERICENTER":"72.5856","CLASSIFICATION_TYPE":"U","FILE":"3568903","NORAD_CAT_ID":"45060","MEAN_ELEMENT_THEORY":"SGP4","MEAN_ANOMALY":"287.5297","MEAN_MOTION_DOT":"0.00001156","MEAN_MOTION":"15.06401069","INCLINATION":"53.0543","OBJECT_NAME":"STARLINK-1166","ELEMENT_SET_NO":"999","DECAY_DATE":null,"RA_OF_ASC_NODE":"251.7462","OBJECT_ID":"2020-006S","APOAPSIS":"548.251","COUNTRY_CODE":"US","LAUNCH_DATE":"2020-01-29","SITE":"AFETR","REV_AT_EPOCH":"14424","OBJECT_TYPE":"PAYLOAD","EPHEMERIS_TYPE":"0","SEMIMAJOR_AXIS":"6925.345","PERIAPSIS":"546.169","MEAN_MOTION_DDOT":"0.0000000000000","EPOCH":"2022-09-11T08:55:22.437408","TLE_LINE2":"2 45060  53.0543 251.7462 0001503  72.5856 287.5297 15.06401069144243","TLE_LINE1":"1 45060U 20006S   22254.37178747  .00001156  00000-0  96478-4 0  9993","TIME_SYSTEM":"UTC"},{"TIME_SYSTEM":"UTC","PERIAPSIS":"546.158","EPOCH":"2022-09-11T07:30:27.591840","SEMIMAJOR_AXIS":"6925.354","MEAN_MOTION_DDOT":"0.0000000000000","TLE_LINE1":"1 45061U 20006T   22254.31281935 -.00000645  00000-0 -24432-4 0  9997","TLE_LINE2":"2 45061  53.0531 252.0020 0001532  75.9925 284.1235 15.06398078144230","EPHEMERIS_TYPE":"0","REV_AT_EPOCH":"14423","OBJECT_TYPE":"PAYLOAD","LAUNCH_DATE":"2020-01-29","SITE":"AFETR","APOAPSIS":"548.280","COUNTRY_CODE":"US","OBJECT_ID":"2020-006T","RA_OF_ASC_NODE":"252.0020","ELEMENT_SET_NO":"999","DECAY_DATE":null,"OBJECT_NAME":"STARLINK-1169","MEAN_MOTION_DOT":"-0.00000645","MEAN_MOTION":"15.06398078","INCLINATION":"53.0531","MEAN_ANOMALY":"284.1235","FILE":"3568903","NORAD_CAT_ID":"45061","MEAN_ELEMENT_THEORY":"SGP4","BSTAR":"-0.00002443200000","CLASSIFICATION_TYPE":"U","ARG_OF_PERICENTER":"75.9925","GP_ID":"212317860","ECCENTRICITY":"0.00015320","REF_FRAME":"TEME","CENTER_NAME":"EARTH","RCS_SIZE":"LARGE","PERIOD":"95.592"}];
